H1 CPF 01  gfz 2022 08 03 12  7152 terrasarx 
H2 0702601  6201 31698    2022 08 03 00 59 42 2022 08 08 00 00 42   120 1 1  0 0 0
H9
10 0 59798  38862.000000  0    1738337.710  -6211691.608  -2428228.919
10 0 59798  38982.000000  0    1464951.548  -5899308.909  -3250461.581
10 0 59798  39102.000000  0    1172454.122  -5479198.217  -4015663.628
10 0 59798  39222.000000  0     867785.854  -4958507.491  -4710484.519
10 0 59798  39342.000000  0     557946.775  -4346240.797  -5322835.952
10 0 59798  39462.000000  0     249842.535  -3653091.708  -5842094.879
10 0 59798  39582.000000  0     -49863.225  -2891247.300  -6259277.998
10 0 59798  39702.000000  0    -334886.985  -2074168.050  -6567185.679
10 0 59798  39822.000000  0    -599451.681  -1216348.064  -6760514.839
10 0 59798  39942.000000  0    -838398.930   -333059.849  -6835941.234
10 0 59798  40062.000000  0   -1047285.688    559913.599  -6792169.921
10 0 59798  40182.000000  0   -1222464.524   1446553.579  -6629954.101
10 0 59798  40302.000000  0   -1361145.877   2310885.735  -6352083.354
10 0 59798  40422.000000  0   -1461441.653   3137260.771  -5963341.778
10 0 59798  40542.000000  0   -1522390.327   3910634.738  -5470435.158
10 0 59798  40662.000000  0   -1543962.047   4616842.196  -4881886.066
10 0 59798  40782.000000  0   -1527044.502   5242859.615  -4207898.201
10 0 59798  40902.000000  0   -1473408.984   5777052.586  -3460188.870
10 0 59798  41022.000000  0   -1385656.604   6209400.744  -2651792.867
10 0 59798  41142.000000  0   -1267146.225   6531696.963  -1796840.971
10 0 59798  41262.000000  0   -1121905.114   6737715.281   -910313.783
10 0 59798  41382.000000  0    -954524.399   6823341.576     -7777.639
10 0 59798  41502.000000  0    -770041.276   6786665.766    894894.105
10 0 59798  41622.000000  0    -573811.053   6628029.433   1781810.133
10 0 59798  41742.000000  0    -371372.567   6350024.968   2637351.402
10 0 59798  41862.000000  0    -168310.663   5957449.253   3446453.256
10 0 59798  41982.000000  0      29880.584   5457215.579   4194875.716
10 0 59798  42102.000000  0     217930.766   4858226.002   4869460.466
10 0 59798  42222.000000  0     390920.176   4171198.109   5458364.415
10 0 59798  42342.000000  0     544396.341   3408464.318   5951261.617
10 0 59798  42462.000000  0     674477.883   2583742.984   6339521.747
10 0 59798  42582.000000  0     777943.041   1711884.584   6616355.047
10 0 59798  42702.000000  0     852302.237    808600.075   6776925.236
10 0 59798  42822.000000  0     895853.022   -109823.946   6818427.993
10 0 59798  42942.000000  0     907716.571  -1026817.539   6740137.418
10 0 59798  43062.000000  0     887854.972  -1925826.289   6543418.909
10 0 59798  43182.000000  0     837069.054  -2790609.931   6231707.326
10 0 59798  43302.000000  0     756976.690  -3605537.724   5810450.580
10 0 59798  43422.000000  0     649971.777  -4355872.575   5287017.518
10 0 59798  43542.000000  0     519166.314  -5028040.288   4670575.404
10 0 59798  43662.000000  0     368315.369  -5609882.266   3971936.686
10 0 59798  43782.000000  0     201725.373  -6090886.068   3203373.347
10 0 59798  43902.000000  0      24148.249  -6462385.972   2378402.217
10 0 59798  44022.000000  0    -159336.334  -6717728.302   1511545.064
10 0 59798  44142.000000  0    -343447.407  -6852399.581    618069.749
10 0 59798  44262.000000  0    -522835.435  -6864113.505   -286287.229
10 0 59798  44382.000000  0    -692217.247  -6752850.450  -1185608.089
10 0 59798  44502.000000  0    -846509.093  -6520850.572  -2064082.733
10 0 59798  44622.000000  0    -980955.078  -6172562.769  -2906293.372
10 0 59798  44742.000000  0   -1091248.143  -5714550.585  -3697490.430
10 0 59798  44862.000000  0   -1173640.244  -5155356.573  -4423853.292
10 0 59798  44982.000000  0   -1225038.789  -4505329.705  -5072729.272
10 0 59798  45102.000000  0   -1243087.702  -3776422.446  -5632847.550
10 0 59798  45222.000000  0   -1226231.334  -2981961.991  -6094506.162
10 0 59798  45342.000000  0   -1173760.165  -2136400.301  -6449729.668
10 0 59798  45462.000000  0   -1085837.850  -1255048.339  -6692395.208
10 0 59798  45582.000000  0    -963509.687   -353800.392  -6818327.354
10 0 59798  45702.000000  0    -808692.072    551148.307  -6825361.965
10 0 59798  45822.000000  0    -624142.460   1443585.442  -6713378.371
10 0 59798  45942.000000  0    -413411.650   2307564.357  -6484301.130
10 0 59798  46062.000000  0    -180778.717   3127682.038  -6142071.494
10 0 59798  46182.000000  0      68832.037   3889350.578  -5692588.153
10 0 59798  46302.000000  0     329950.279   4579055.910  -5143614.864
10 0 59798  46422.000000  0     596672.655   5184600.193  -4504658.142
10 0 59798  46542.000000  0     862788.644   5695325.073  -3786813.674
10 0 59798  46662.000000  0    1121916.913   6102309.100  -3002582.376
10 0 59798  46782.000000  0    1367649.107   6398535.368  -2165659.196
10 0 59798  46902.000000  0    1593698.215   6579025.414  -1290696.560
10 0 59798  47022.000000  0    1794048.046   6640934.660   -393046.127
10 0 59798  47142.000000  0    1963099.629   6583605.282    511515.992
10 0 59798  47262.000000  0    2095810.196   6408575.311   1407073.477
10 0 59798  47382.000000  0    2187822.014   6119544.247   2277857.740
10 0 59798  47502.000000  0    2235577.456   5722295.280   3108533.508
10 0 59798  47622.000000  0    2236417.753   5224576.906   3884476.406
10 0 59798  47742.000000  0    2188661.729   4635945.628   4592036.941
10 0 59798  47862.000000  0    2091663.100   3967572.392   5218784.962
10 0 59798  47982.000000  0    1945844.598   3232019.257   5753725.136
10 0 59798  48102.000000  0    1752710.539   2442996.983   6187485.304
10 0 59798  48222.000000  0    1514836.209   1615103.641   6512476.610
10 0 59798  48342.000000  0    1235834.215    763549.342   6723020.200
10 0 59798  48462.000000  0     920299.132    -96124.843   6815439.230
10 0 59798  48582.000000  0     573731.722   -948328.961   6788119.840
10 0 59798  48702.000000  0     202442.819  -1777707.182   6641538.811
10 0 59798  48822.000000  0    -186561.757  -2569414.368   6378255.585
10 0 59798  48942.000000  0    -585712.947  -3309382.874   6002869.628
10 0 59798  49062.000000  0    -987023.316  -3984573.176   5521942.603
10 0 59798  49182.000000  0   -1382243.702  -4583205.468   4943890.719
10 0 59798  49302.000000  0   -1763031.542  -5094971.951   4278846.223
10 0 59798  49422.000000  0   -2121126.238  -5511224.363   3538484.921
10 0 59798  49542.000000  0   -2448527.256  -5825129.475   2735822.116
10 0 59798  49662.000000  0   -2737670.462  -6031788.374   1884982.585
10 0 59798  49782.000000  0   -2981598.636  -6128318.776   1000948.563
10 0 59798  49902.000000  0   -3174122.090  -6113897.586     99289.763
10 0 59798  50022.000000  0   -3309965.158  -5989762.056   -804118.818
10 0 59798  50142.000000  0   -3384894.910  -5759169.234  -1693385.521
10 0 59798  50262.000000  0   -3395828.729  -5427314.228  -2552890.192
10 0 59798  50382.000000  0   -3340918.070  -5001209.932  -3367565.444
10 0 59798  50502.000000  0   -3219605.799  -4489531.442  -4123164.417
10 0 59798  50622.000000  0   -3032656.483  -3902430.894  -4806508.916
10 0 59798  50742.000000  0   -2782160.127  -3251328.112  -5405714.598
10 0 59798  50862.000000  0   -2471509.941  -2548681.715  -5910389.838
10 0 59798  50982.000000  0   -2105354.600  -1807746.399  -6311806.185
10 0 59798  51102.000000  0   -1689525.484  -1042320.869  -6603038.578
10 0 59798  51222.000000  0   -1230941.767   -266491.709  -6779072.837
10 0 59798  51342.000000  0    -737495.965    505621.534  -6836881.590
10 0 59798  51462.000000  0    -217920.185   1260116.682  -6775470.718
10 0 59798  51582.000000  0     318364.469   1983552.642  -6595894.176
10 0 59798  51702.000000  0     861413.358   2663182.959  -6301239.739
10 0 59798  51822.000000  0    1400939.393   3287177.626  -5896582.552
10 0 59798  51942.000000  0    1926503.481   3844828.163  -5388905.778
10 0 59798  52062.000000  0    2427713.274   4326732.829  -4786991.272
10 0 59798  52182.000000  0    2894426.999   4724960.479  -4101279.280
10 0 59798  52302.000000  0    3316958.117   5033188.898  -3343697.037
10 0 59798  52422.000000  0    3686277.261   5246813.921  -2527459.256
10 0 59798  52542.000000  0    3994207.070   5363026.306  -1666841.346
10 0 59798  52662.000000  0    4233603.684   5380853.903   -776930.322
10 0 59798  52782.000000  0    4398521.001   5301168.217    126643.314
10 0 59798  52902.000000  0    4484353.175   5126652.547   1027986.790
10 0 59798  53022.000000  0    4487949.783   4861733.115   1911231.914
10 0 59798  53142.000000  0    4407703.841   4512477.711   2760822.012
10 0 59798  53262.000000  0    4243608.213   4086459.509   3561796.360
10 0 59798  53382.000000  0    3997276.964   3592591.040   4300059.793
10 0 59798  53502.000000  0    3671935.439   3040933.856   4962633.209
10 0 59798  53622.000000  0    3272377.946   2442489.528   5537884.643
10 0 59798  53742.000000  0    2804890.806   1808974.131   6015730.221
10 0 59798  53862.000000  0    2277149.560   1152585.394   6387805.217
10 0 59798  53982.000000  0    1698089.003    485764.848   6647604.235
10 0 59798  54102.000000  0    1077748.875   -179037.598   6790588.603
10 0 59798  54222.000000  0     427098.203   -829595.196   6814262.345
10 0 59798  54342.000000  0    -242159.292  -1454129.702   6718212.990
10 0 59798  54462.000000  0    -917795.805  -2041524.280   6504117.771
10 0 59798  54582.000000  0   -1587282.202  -2581521.434   6175714.719
10 0 59798  54702.000000  0   -2238017.793  -3064901.950   5738741.097
10 0 59798  54822.000000  0   -2857567.003  -3483644.954   5200841.333
10 0 59798  54942.000000  0   -3433900.964  -3831065.868   4571440.294
10 0 59798  55062.000000  0   -3955635.610  -4101927.161   3861581.904
10 0 59798  55182.000000  0   -4412260.343  -4292520.834   3083738.112
10 0 59798  55302.000000  0   -4794353.952  -4400721.247   2251591.370
99
